COSMOS 2251 DEB         
1 35592U 93036AMK 17345.83990246  .00000861  00000-0  87188-4 0  9997
2 35592  74.0081 162.7603 0120041 305.5687  53.4349 14.87671110462706
